FLOCK 1C-3              
1 40041U 14033AH  18003.99422697  .00000903  00000-0  10192-3 0  9998
2 40041  97.9245 281.5493 0013476 357.0952   3.0222 14.88980670192362
POLYITAN-1              
1 40042U 14033AJ  18003.69158136  .00000383  00000-0  47481-4 0  9994
2 40042  97.9166 279.4532 0014862   0.1758 359.9461 14.88272449191731
TIGRISAT                
1 40043U 14033AK  18004.17605372  .00000159  00000-0  31150-4 0  9995
2 40043  97.8310 247.2411 0060422   8.5751 351.6475 14.74080716190449
LEMUR-1                 
1 40044U 14033AL  18003.90950213  .00000158  00000-0  31102-4 0  9999
2 40044  97.8307 246.6681 0059615  10.7448 349.5019 14.73908021189982
AEROCUBE 6A             
1 40045U 14033AM  18003.87991292  .00000397  00000-0  64916-4 0  9992
2 40045  97.8454 248.6931 0058566   4.3053 355.8648 14.75030160190062
AEROCUBE 6B             
1 40046U 14033AN  18004.21927406  .00000377  00000-0  62178-4 0  9994
2 40046  97.8436 248.9279 0057554   2.7873 357.3646 14.75021238190497
UKUBE-1                 
1 40074U 14037F   18004.07598085  .00000309  00000-0  44535-4 0  9992
2 40074  98.3658 133.2971 0005787 117.5927 242.5859 14.83692198188969
BRITE-PL 2              
1 40119U 14049B   18003.71656934  .00000122  00000-0  21021-4 0  9991
2 40119  97.9273  93.4755 0018246 151.2287 208.9937 14.84236949182812
FIREBIRD 4              
1 40378U 15003C   18004.18881717  .00001558  00000-0  67994-4 0  9993
2 40378  99.1066 233.3622 0134148  55.8565 305.5300 15.16555543161465
GRIFEX                  
1 40379U 15003D   18004.18421483  .00001135  00000-0  53974-4 0  9998
2 40379  99.1102 230.2679 0140727  66.0468 295.5423 15.13838942161289
EXOCUBE                 
1 40380U 15003E   18003.84954840  .00000781  00000-0  40099-4 0  9990
2 40380  99.1152 228.1589 0144920  72.7557 288.9470 15.12147184161103
DEORBITSAIL             
1 40719U 15032E   18003.69470772  .00000385  00000-0  62865-4 0  9993
2 40719  97.9617 259.7220 0015536 214.9287 145.0904 14.76294722133905
TIANWANG 1C (TW-1C)     
1 40926U 15051B   18004.10696757  .00007216  00000-0  14699-3 0  9995
2 40926  97.2057  47.3188 0011446 148.5250 266.1780 15.46480090127934
TIANWANG 1B (TW-1B)     
1 40927U 15051C   18004.07069499  .00007232  00000-0  15331-3 0  9991
2 40927  97.2148  47.2034 0011106 160.1397 283.7683 15.45312958127854
TIANWANG 1A (TW-1A)     
1 40928U 15051D   18004.07170434  .00003156  00000-0  87200-4 0  9990
2 40928  97.2052  41.2251 0011575 186.1792 226.1983 15.37724867127559
LEMUR-2-JOEL            
1 40932U 15052C   17364.31025959 -.00125049  00000-0 -17455-1 0  9992
2 40932   6.0099 267.3132 0013997 159.1516 200.9589 14.77605176122063
LEMUR-2-CHRIS           
1 40933U 15052D   18003.07274498  .00003075  00000-0  32975-3 0  9999
2 40933   6.0062 239.1073 0013396 217.0350 142.8196 14.77771210122632
LEMUR-2-JEROEN          
1 40934U 15052E   18003.80726485  .00003409  00000-0  38184-3 0  9998
2 40934   6.0037 240.3253 0011130 207.9807 151.9890 14.77112631122647
LEMUR-2-PETER           
1 40935U 15052F   18003.11566235  .00001362  00000-0  10031-3 0  9995
2 40935   6.0006 247.3739 0010391 200.9812 158.9927 14.76884053122547
EXACTVIEW 9             
1 40936U 15052G   18004.06402378  .00000770  00000-0  18921-4 0  9997
2 40936   5.9966 243.9322 0009970 200.6621 159.3067 14.76338014122672
ATHENOXAT 1             
1 41168U 15077C   18004.24429123  .00001954  00000-0  71255-4 0  9993
2 41168  14.9853 139.8261 0012090 285.0333 294.3800 15.12353785113515
GALASSIA                
1 41170U 15077E   18003.66713775  .00001778  00000-0  60438-4 0  9995
2 41170  14.9881 139.3453 0013412 296.6399  63.2548 15.12771211113471
VELOX 2                 
1 41171U 15077F   18003.55246680  .00001436  00000-0  45668-4 0  9999
2 41171  14.9904 157.3965 0009137 243.1397 116.7989 15.10377653113305
AGGIESAT 4              
1 41313U 98067HP  18003.51713937  .00076020  13476-4  20560-3 0  9996
2 41313  51.6340  42.5137 0001202  21.1732 338.9325 15.94403390110638
HORYU-IV                
1 41340U 16012D   18003.92301042  .00000458  00000-0  28340-4 0  9993
2 41340  31.0052 272.1024 0014307 263.9615  95.9391 15.00851744103195
OUFTI-1                 
1 41458U 16025C   18004.15017905  .00002042  00000-0  11129-3 0  9992
2 41458  98.1597  58.0923 0170779 337.8496  21.5429 15.04124196 92772
E-ST@R-II               
1 41459U 16025D   18004.13005585  .00001712  00000-0  94518-4 0  9999
2 41459  98.1628  57.9716 0171425 338.7135  20.7031 15.03899479 92766
AAUSAT 4                
1 41460U 16025E   18004.12053923  .00002110  00000-0  11466-3 0  9992
2 41460  98.1541  58.2348 0163093 335.8144  23.5488 15.05128228 92808
DIWATA-1                
1 41463U 98067HT  18004.12756821  .00009747  00000-0  95587-4 0  9998
2 41463  51.6418  88.1898 0001101 174.2523 259.6880 15.66816061 96254
FLOCK 2E'-1             
1 41479U 98067HZ  18003.57592844  .00052382  00000-0  22791-3 0  9995
2 41479  51.6324  65.5385 0001899 335.8929  24.1985 15.84249603 93447
FLOCK 2E'-3             
1 41480U 98067JA  18004.18323318  .00055561  00000-0  25896-3 0  9994
2 41480  51.6259  62.8143 0001683 329.2401  30.8502 15.82766002 93524
FLOCK 2E-1              
1 41483U 98067JD  18004.21654205  .00026116  00000-0  15050-3 0  9998
2 41483  51.6347  66.9638 0000780 349.4109  10.6875 15.78502826 93330
FLOCK 2E-2              
1 41484U 98067JE  18004.15155445  .00304498  48875-4  66219-3 0  9995
2 41484  51.6283  58.9001 0006620  30.2206 329.9184 15.97743615 93431
FLOCK 2E-3              
1 41486U 98067JG  18003.73365381  .00035396  00000-0  18274-3 0  9992
2 41486  51.6301  69.6752 0001247  11.5014 348.6016 15.80761990 93277
FLOCK 2E-4              
1 41487U 98067JH  18004.20709301  .00105852  00000-0  47726-3 0  9999
2 41487  51.6292  66.0749 0003684  41.9226 318.2058 15.83212327 93360
FLOCK 2E-6              
1 41563U 98067JM  18003.55402986  .00158860  00000-0  52706-3 0  9991
2 41563  51.6300  71.4399 0004800 345.9892  14.0979 15.89335335 91309
FLOCK 2E-5              
1 41564U 98067JN  18003.72734781  .00021666  00000-0  14532-3 0  9990
2 41564  51.6312  74.9323 0001667 281.5065  78.5748 15.75172952 91266
FLOCK 2E-7              
1 41565U 98067JP  18003.52771597  .00041680  00000-0  18635-3 0  9991
2 41565  51.6267  64.4080 0001110 219.4556 140.6366 15.83776581 91284
FLOCK 2E'-5             
1 41567U 98067JR  18003.79321855  .00018050  00000-0  12945-3 0  9993
2 41567  51.6345  77.6769 0003021 188.1709 171.9241 15.73753445 91101
FLOCK 2E'-6             
1 41568U 98067JS  18003.79821750  .00038994  00000-0  22221-3 0  9990
2 41568  51.6288  70.8235 0001622 214.3104 145.7792 15.78532145 91227
FLOCK 2E'-8             
1 41569U 98067JT  18003.55831315  .00048406  00000-0  20448-3 0  9991
2 41569  51.6305  63.1406 0000847 355.2505   4.8491 15.84903948 91187
FLOCK 2E-9              
1 41571U 98067JV  17358.79358663  .07570510  12393-4  99252-3 0  9996
2 41571  51.6107 107.3098 0009920 356.3054   4.2290 16.34648771 89702
FLOCK 2E-10             
1 41572U 98067JW  18004.19971521  .00108295  00000-0  48303-3 0  9993
2 41572  51.6327  63.0049 0000260 232.6077 127.4902 15.83438789 91227
FLOCK 2E-12             
1 41573U 98067JX  18003.56341171  .00054254  00000-0  21958-3 0  9998
2 41573  51.6296  63.1731 0001146 279.4207  80.6668 15.85746370 91162
FLOCK 2E-11             
1 41574U 98067JY  18003.56823502  .00048953  00000-0  20533-3 0  9999
2 41574  51.6237  62.3337 0001734 254.4706 105.6106 15.85046419 91174
FLOCK 2E'-9             
1 41575U 98067JZ  18004.15941420  .00082639  13661-4  27085-3 0  9995
2 41575  51.6263  54.9807 0002596 310.4287  49.6492 15.90653305 91312
FLOCK 2E'-10            
1 41576U 98067KA  18004.14792897  .00110258  00000-0  38594-3 0  9992
2 41576  51.6292  58.8424 0001857 284.7307  75.3492 15.88430868 91161
FLOCK 2E'-11            
1 41577U 98067KB  18003.58942871  .00045379  00000-0  20407-3 0  9994
2 41577  51.6327  64.9440 0001157 219.6827 140.4091 15.83615062 90854
FLOCK 2E'-12            
1 41578U 98067KC  18004.17506367  .00097322  14748-4  28895-3 0  9999
2 41578  51.6221  55.8277 0001546 352.6196   7.4787 15.92451164 91029
FLOCK 2P-6              
1 41606U 16040H   18004.16380866  .00002124  00000-0  91169-4 0  9998
2 41606  97.4355  70.2018 0012132  91.3862 268.8765 15.23753701 85298
FLOCK 2P-11             
1 41608U 16040K   18003.90803415  .00002706  00000-0  11567-3 0  9990
2 41608  97.4352  69.9040 0012183  91.9340 268.3293 15.23656841 85197
FLOCK 2P-2              
1 41609U 16040L   18003.92129083  .00001664  00000-0  72038-4 0  9998
2 41609  97.4358  69.9211 0012042  91.5308 268.7308 15.23776515 85178
FLOCK 2P-9              
1 41610U 16040M   18003.86776667  .00001050  00000-0  46580-4 0  9991
2 41610  97.4355  69.8197 0012365  91.8858 268.3795 15.23756846 85047
FLOCK 2P-4              
1 41611U 16040N   18003.89707233  .00003008  00000-0  12788-3 0  9995
2 41611  97.4379  70.1168 0012403  99.8996 260.3642 15.23747379 85214
FLOCK 2P-10             
1 41612U 16040P   18003.87349215  .00001599  00000-0  69389-4 0  9999
2 41612  97.4388  70.1832 0012221  99.7723 260.4894 15.23750219 85215
FLOCK 2P-8              
1 41613U 16040Q   18003.89137840  .00003266  00000-0  13862-3 0  9998
2 41613  97.4380  70.1303 0012383  99.1249 261.1389 15.23741855 85210
FLOCK 2P-12             
1 41614U 16040R   18003.78596829  .00001303  00000-0  57115-4 0  9993
2 41614  97.4393  70.1903 0012060  99.6616 260.5984 15.23745024 85201
FLOCK 2P-7              
1 41615U 16040S   18003.88559420  .00000865  00000-0  39075-4 0  9998
2 41615  97.4381  70.1183 0012432 100.0300 260.2341 15.23604179 85219
FLOCK 2P-5              
1 41616U 16040T   18003.86267804  .00001313  00000-0  57555-4 0  9991
2 41616  97.4394  70.2405 0012022  99.0633 261.1965 15.23731698 85199
